[
  {
    "name": "STARLINK-5149",
    "tle1": "1 53981U 22125T   26079.60149111 -.00000222  00000+0  41171-5 0  9990",
    "tle2": "2 53981  53.2154 154.9111 0001293  87.0023 273.1118 15.08841278191250"
  },
  {
    "name": "STARLINK-5120",
    "tle1": "1 53982U 22125U   26079.49756103  .00000085  00000+0  23451-4 0  9999",
    "tle2": "2 53982  53.2153 165.6398 0001240  75.6076 284.5054 15.08842333191088"
  },
  {
    "name": "STARLINK-5142",
    "tle1": "1 53984U 22125W   26079.50861659  .00000024  00000+0  19602-4 0  9992",
    "tle2": "2 53984  53.2171 165.7084 0001237  89.0990 271.0144 15.08840378191092"
  },
  {
    "name": "STARLINK-5147",
    "tle1": "1 53985U 22125X   26079.51598268  .00001021  00000+0  82239-4 0  9991",
    "tle2": "2 53985  53.2164 165.7533 0001350  93.0310 267.0837 15.08842962191096"
  },
  {
    "name": "STARLINK-5119",
    "tle1": "1 53986U 22125Y   26079.59411882  .00000497  00000+0  49325-4 0  9991",
    "tle2": "2 53986  53.2158 154.8498 0001235  80.9578 279.1554 15.08841727191247"
  },
  {
    "name": "STARLINK-5113",
    "tle1": "1 53988U 22125AA  26079.50493176  .00000527  00000+0  51196-4 0  9993",
    "tle2": "2 53988  53.2137 165.6842 0001222  88.7776 271.3356 15.08839029191089"
  },
  {
    "name": "STARLINK-5118",
    "tle1": "1 53991U 22125AD  26079.49110779  .00000484  00000+0  48467-4 0  9999",
    "tle2": "2 53991  53.2164 155.5642 0001264  92.3859 267.7278 15.08840346191220"
  },
  {
    "name": "STARLINK-5108",
    "tle1": "1 53992U 22125AE  26079.42763966  .00000148  00000+0  27382-4 0  9995",
    "tle2": "2 53992  53.2168 165.9138 0001121  90.1664 269.9457 15.08838993191073"
  },
  {
    "name": "STARLINK-5121",
    "tle1": "1 53993U 22125AF  26079.60286951  .00001132  00000+0  89218-4 0  9990",
    "tle2": "2 53993  53.2168 159.8828 0001000  82.2593 277.8513 15.08841912191178"
  },
  {
    "name": "STARLINK-5125",
    "tle1": "1 53994U 22125AG  26079.41658570  .00000589  00000+0  55102-4 0  9990",
    "tle2": "2 53994  53.2154 165.8435 0001193  94.5833 265.5295 15.08835551191084"
  },
  {
    "name": "STARLINK-5097",
    "tle1": "1 53995U 22125AH  26079.49019403  .00001239  00000+0  95911-4 0  9990",
    "tle2": "2 53995  53.2167 165.5960 0000952  92.7950 267.3151 15.08841223191085"
  },
  {
    "name": "STARLINK-5131",
    "tle1": "1 53996U 22125AJ  26079.41290848 -.00000478  00000+0 -11977-4 0  9993",
    "tle2": "2 53996  53.2159 165.8178 0000807 100.3977 259.7106 15.08826568191085"
  },
  {
    "name": "STARLINK-5130",
    "tle1": "1 53997U 22125AK  26079.51323124  .00000533  00000+0  51608-4 0  9994",
    "tle2": "2 53997  53.2179 155.7609 0001254  92.8222 267.2914 15.08836476191237"
  },
  {
    "name": "STARLINK-5128",
    "tle1": "1 53998U 22125AL  26079.53800814  .00000864  00000+0  72354-4 0  9991",
    "tle2": "2 53998  53.2165 165.1817 0001156  75.9736 284.1385 15.08839184191107"
  },
  {
    "name": "STARLINK-5079",
    "tle1": "1 53999U 22125AM  26079.42027035  .00000536  00000+0  51792-4 0  9995",
    "tle2": "2 53999  53.2167 165.8667 0001079  87.4852 272.6263 15.08835810191087"
  },
  {
    "name": "STARLINK-5088",
    "tle1": "1 54000U 22125AN  26079.50954528  .00001455  00000+0  10947-3 0  9991",
    "tle2": "2 54000  53.2159 155.7379 0001202  83.3035 276.8094 15.08849617191231"
  }
]