[{"OBJECT_NAME":"STARLINK-5149","OBJECT_ID":"2022-125T","EPOCH":"2026-03-20T14:26:08.831904","MEAN_MOTION":15.08841278,"ECCENTRICITY":0.00012936,"INCLINATION":53.2154,"RA_OF_ASC_NODE":154.9111,"ARG_OF_PERICENTER":87.0023,"MEAN_ANOMALY":273.1118,"EPHEMERIS_TYPE":0,"CLASSIFICATION_TYPE":"U","NORAD_CAT_ID":53981,"ELEMENT_SET_NO":999,"REV_AT_EPOCH":19125,"BSTAR":4.117067e-6,"MEAN_MOTION_DOT":-2.22e-6,"MEAN_MOTION_DDOT":0},{"OBJECT_NAME":"STARLINK-5120","OBJECT_ID":"2022-125U","EPOCH":"2026-03-20T11:56:29.272992","MEAN_MOTION":15.08842333,"ECCENTRICITY":0.00012408,"INCLINATION":53.2153,"RA_OF_ASC_NODE":165.6398,"ARG_OF_PERICENTER":75.6076,"MEAN_ANOMALY":284.5054,"EPHEMERIS_TYPE":0,"CLASSIFICATION_TYPE":"U","NORAD_CAT_ID":53982,"ELEMENT_SET_NO":999,"REV_AT_EPOCH":19108,"BSTAR":2.3450706e-5,"MEAN_MOTION_DOT":8.5e-7,"MEAN_MOTION_DDOT":0},{"OBJECT_NAME":"STARLINK-5142","OBJECT_ID":"2022-125W","EPOCH":"2026-03-20T12:12:24.473376","MEAN_MOTION":15.08840378,"ECCENTRICITY":0.00012376,"INCLINATION":53.2171,"RA_OF_ASC_NODE":165.7084,"ARG_OF_PERICENTER":89.099,"MEAN_ANOMALY":271.0144,"EPHEMERIS_TYPE":0,"CLASSIFICATION_TYPE":"U","NORAD_CAT_ID":53984,"ELEMENT_SET_NO":999,"REV_AT_EPOCH":19109,"BSTAR":1.9601575e-5,"MEAN_MOTION_DOT":2.4e-7,"MEAN_MOTION_DDOT":0},{"OBJECT_NAME":"STARLINK-5147","OBJECT_ID":"2022-125X","EPOCH":"2026-03-20T12:23:00.903552","MEAN_MOTION":15.08842962,"ECCENTRICITY":0.00013502,"INCLINATION":53.2164,"RA_OF_ASC_NODE":165.7533,"ARG_OF_PERICENTER":93.031,"MEAN_ANOMALY":267.0837,"EPHEMERIS_TYPE":0,"CLASSIFICATION_TYPE":"U","NORAD_CAT_ID":53985,"ELEMENT_SET_NO":999,"REV_AT_EPOCH":19109,"BSTAR":8.2239171e-5,"MEAN_MOTION_DOT":1.021e-5,"MEAN_MOTION_DDOT":0},{"OBJECT_NAME":"STARLINK-5119","OBJECT_ID":"2022-125Y","EPOCH":"2026-03-20T14:15:31.866048","MEAN_MOTION":15.08841727,"ECCENTRICITY":0.00012355,"INCLINATION":53.2158,"RA_OF_ASC_NODE":154.8498,"ARG_OF_PERICENTER":80.9578,"MEAN_ANOMALY":279.1554,"EPHEMERIS_TYPE":0,"CLASSIFICATION_TYPE":"U","NORAD_CAT_ID":53986,"ELEMENT_SET_NO":999,"REV_AT_EPOCH":19124,"BSTAR":4.9325368e-5,"MEAN_MOTION_DOT":4.97e-6,"MEAN_MOTION_DDOT":0},{"OBJECT_NAME":"STARLINK-5113","OBJECT_ID":"2022-125AA","EPOCH":"2026-03-20T12:07:06.104064","MEAN_MOTION":15.08839029,"ECCENTRICITY":0.00012222,"INCLINATION":53.2137,"RA_OF_ASC_NODE":165.6842,"ARG_OF_PERICENTER":88.7776,"MEAN_ANOMALY":271.3356,"EPHEMERIS_TYPE":0,"CLASSIFICATION_TYPE":"U","NORAD_CAT_ID":53988,"ELEMENT_SET_NO":999,"REV_AT_EPOCH":19108,"BSTAR":5.1195801e-5,"MEAN_MOTION_DOT":5.27e-6,"MEAN_MOTION_DDOT":0},{"OBJECT_NAME":"STARLINK-5118","OBJECT_ID":"2022-125AD","EPOCH":"2026-03-20T11:47:11.713056","MEAN_MOTION":15.08840346,"ECCENTRICITY":0.0001264,"INCLINATION":53.2164,"RA_OF_ASC_NODE":155.5642,"ARG_OF_PERICENTER":92.3859,"MEAN_ANOMALY":267.7278,"EPHEMERIS_TYPE":0,"CLASSIFICATION_TYPE":"U","NORAD_CAT_ID":53991,"ELEMENT_SET_NO":999,"REV_AT_EPOCH":19122,"BSTAR":4.8467495e-5,"MEAN_MOTION_DOT":4.84e-6,"MEAN_MOTION_DDOT":0},{"OBJECT_NAME":"STARLINK-5108","OBJECT_ID":"2022-125AE","EPOCH":"2026-03-20T10:15:48.066624","MEAN_MOTION":15.08838993,"ECCENTRICITY":0.00011217,"INCLINATION":53.2168,"RA_OF_ASC_NODE":165.9138,"ARG_OF_PERICENTER":90.1664,"MEAN_ANOMALY":269.9457,"EPHEMERIS_TYPE":0,"CLASSIFICATION_TYPE":"U","NORAD_CAT_ID":53992,"ELEMENT_SET_NO":999,"REV_AT_EPOCH":19107,"BSTAR":2.7381587e-5,"MEAN_MOTION_DOT":1.48e-6,"MEAN_MOTION_DDOT":0},{"OBJECT_NAME":"STARLINK-5121","OBJECT_ID":"2022-125AF","EPOCH":"2026-03-20T14:28:07.925664","MEAN_MOTION":15.08841912,"ECCENTRICITY":0.00010004,"INCLINATION":53.2168,"RA_OF_ASC_NODE":159.8828,"ARG_OF_PERICENTER":82.2593,"MEAN_ANOMALY":277.8513,"EPHEMERIS_TYPE":0,"CLASSIFICATION_TYPE":"U","NORAD_CAT_ID":53993,"ELEMENT_SET_NO":999,"REV_AT_EPOCH":19117,"BSTAR":8.9218259e-5,"MEAN_MOTION_DOT":1.132e-5,"MEAN_MOTION_DDOT":0},{"OBJECT_NAME":"STARLINK-5125","OBJECT_ID":"2022-125AG","EPOCH":"2026-03-20T09:59:53.004480","MEAN_MOTION":15.08835551,"ECCENTRICITY":0.0001193,"INCLINATION":53.2154,"RA_OF_ASC_NODE":165.8435,"ARG_OF_PERICENTER":94.5833,"MEAN_ANOMALY":265.5295,"EPHEMERIS_TYPE":0,"CLASSIFICATION_TYPE":"U","NORAD_CAT_ID":53994,"ELEMENT_SET_NO":999,"REV_AT_EPOCH":19108,"BSTAR":5.5101503e-5,"MEAN_MOTION_DOT":5.89e-6,"MEAN_MOTION_DDOT":0},{"OBJECT_NAME":"STARLINK-5097","OBJECT_ID":"2022-125AH","EPOCH":"2026-03-20T11:45:52.764192","MEAN_MOTION":15.08841223,"ECCENTRICITY":9.52e-5,"INCLINATION":53.2167,"RA_OF_ASC_NODE":165.596,"ARG_OF_PERICENTER":92.795,"MEAN_ANOMALY":267.3151,"EPHEMERIS_TYPE":0,"CLASSIFICATION_TYPE":"U","NORAD_CAT_ID":53995,"ELEMENT_SET_NO":999,"REV_AT_EPOCH":19108,"BSTAR":9.5911418e-5,"MEAN_MOTION_DOT":1.239e-5,"MEAN_MOTION_DDOT":0},{"OBJECT_NAME":"STARLINK-5131","OBJECT_ID":"2022-125AJ","EPOCH":"2026-03-20T09:54:35.292672","MEAN_MOTION":15.08826568,"ECCENTRICITY":8.075e-5,"INCLINATION":53.2159,"RA_OF_ASC_NODE":165.8178,"ARG_OF_PERICENTER":100.3977,"MEAN_ANOMALY":259.7106,"EPHEMERIS_TYPE":0,"CLASSIFICATION_TYPE":"U","NORAD_CAT_ID":53996,"ELEMENT_SET_NO":999,"REV_AT_EPOCH":19108,"BSTAR":-1.1977071e-5,"MEAN_MOTION_DOT":-4.78e-6,"MEAN_MOTION_DDOT":0},{"OBJECT_NAME":"STARLINK-5130","OBJECT_ID":"2022-125AK","EPOCH":"2026-03-20T12:19:03.179136","MEAN_MOTION":15.08836476,"ECCENTRICITY":0.00012546,"INCLINATION":53.2179,"RA_OF_ASC_NODE":155.7609,"ARG_OF_PERICENTER":92.8222,"MEAN_ANOMALY":267.2914,"EPHEMERIS_TYPE":0,"CLASSIFICATION_TYPE":"U","NORAD_CAT_ID":53997,"ELEMENT_SET_NO":999,"REV_AT_EPOCH":19123,"BSTAR":5.1607517e-5,"MEAN_MOTION_DOT":5.33e-6,"MEAN_MOTION_DDOT":0},{"OBJECT_NAME":"STARLINK-5128","OBJECT_ID":"2022-125AL","EPOCH":"2026-03-20T12:54:43.903296","MEAN_MOTION":15.08839184,"ECCENTRICITY":0.00011569,"INCLINATION":53.2165,"RA_OF_ASC_NODE":165.1817,"ARG_OF_PERICENTER":75.9736,"MEAN_ANOMALY":284.1385,"EPHEMERIS_TYPE":0,"CLASSIFICATION_TYPE":"U","NORAD_CAT_ID":53998,"ELEMENT_SET_NO":999,"REV_AT_EPOCH":19110,"BSTAR":7.235394e-5,"MEAN_MOTION_DOT":8.64e-6,"MEAN_MOTION_DDOT":0},{"OBJECT_NAME":"STARLINK-5079","OBJECT_ID":"2022-125AM","EPOCH":"2026-03-20T10:05:11.358240","MEAN_MOTION":15.0883581,"ECCENTRICITY":0.00010791,"INCLINATION":53.2167,"RA_OF_ASC_NODE":165.8667,"ARG_OF_PERICENTER":87.4852,"MEAN_ANOMALY":272.6263,"EPHEMERIS_TYPE":0,"CLASSIFICATION_TYPE":"U","NORAD_CAT_ID":53999,"ELEMENT_SET_NO":999,"REV_AT_EPOCH":19108,"BSTAR":5.1792006e-5,"MEAN_MOTION_DOT":5.36e-6,"MEAN_MOTION_DDOT":0},{"OBJECT_NAME":"STARLINK-5088","OBJECT_ID":"2022-125AN","EPOCH":"2026-03-20T12:13:44.712192","MEAN_MOTION":15.08849617,"ECCENTRICITY":0.00012024,"INCLINATION":53.2159,"RA_OF_ASC_NODE":155.7379,"ARG_OF_PERICENTER":83.3035,"MEAN_ANOMALY":276.8094,"EPHEMERIS_TYPE":0,"CLASSIFICATION_TYPE":"U","NORAD_CAT_ID":54000,"ELEMENT_SET_NO":999,"REV_AT_EPOCH":19123,"BSTAR":0.00010946698,"MEAN_MOTION_DOT":1.455e-5,"MEAN_MOTION_DDOT":0}]
